start=new Date('2023-03-07T00:00:00.000Z').valueOf();
sats=[{"ECCENTRICITY":"0.00021260","REF_FRAME":"TEME","MEAN_MOTION_DOT":"0.00013935","INCLINATION":"53.2167","OBJECT_TYPE":"PAYLOAD","EPHEMERIS_TYPE":"0","DECAY_DATE":null,"SITE":"AFETR","ARG_OF_PERICENTER":"103.4098","MEAN_ELEMENT_THEORY":"SGP4","MEAN_MOTION":"15.08828787","EPOCH":"2023-03-06T18:25:53.647392","TLE_LINE1":"1 52295U 22041AL  23065.76798203  .00013935  00000-0  89216-3 0  9990","MEAN_MOTION_DDOT":"0.0000000000000","LAUNCH_DATE":"2022-04-21","CLASSIFICATION_TYPE":"U","PERIAPSIS":"538.309","RA_OF_ASC_NODE":"352.3751","REV_AT_EPOCH":"4860","COUNTRY_CODE":"US","ELEMENT_SET_NO":"999","OBJECT_NAME":"STARLINK-3765","FILE":"3853141","SEMIMAJOR_AXIS":"6917.915","NORAD_CAT_ID":"52295","APOAPSIS":"541.250","CENTER_NAME":"EARTH","MEAN_ANOMALY":"256.7131","GP_ID":"227628680","TIME_SYSTEM":"UTC","RCS_SIZE":"LARGE","TLE_LINE2":"2 52295  53.2167 352.3751 0002126 103.4098 256.7131 15.08828787 48608","PERIOD":"95.438","OBJECT_ID":"2022-041AL","BSTAR":"0.00089216000000"},{"OBJECT_NAME":"STARLINK-3766","ELEMENT_SET_NO":"999","REV_AT_EPOCH":"4861","COUNTRY_CODE":"US","RA_OF_ASC_NODE":"352.1805","OBJECT_ID":"2022-041AM","BSTAR":"0.00045821000000","TIME_SYSTEM":"UTC","RCS_SIZE":"LARGE","TLE_LINE2":"2 52296  53.2177 352.1805 0001726  70.6039 289.5140 15.08833545 48616","PERIOD":"95.438","MEAN_ANOMALY":"289.5140","GP_ID":"227626931","FILE":"3853141","SEMIMAJOR_AXIS":"6917.900","NORAD_CAT_ID":"52296","APOAPSIS":"540.959","CENTER_NAME":"EARTH","MEAN_ELEMENT_THEORY":"SGP4","MEAN_MOTION":"15.08833545","EPOCH":"2023-03-06T19:29:28.959072","TLE_LINE1":"1 52296U 22041AM  23065.81214073  .00007011  00000-0  45821-3 0  9997","SITE":"AFETR","DECAY_DATE":null,"ARG_OF_PERICENTER":"70.6039","MEAN_MOTION_DOT":"0.00007011","INCLINATION":"53.2177","OBJECT_TYPE":"PAYLOAD","EPHEMERIS_TYPE":"0","ECCENTRICITY":"0.00017260","REF_FRAME":"TEME","PERIAPSIS":"538.571","MEAN_MOTION_DDOT":"0.0000000000000","LAUNCH_DATE":"2022-04-21","CLASSIFICATION_TYPE":"U"},{"MEAN_ELEMENT_THEORY":"SGP4","MEAN_MOTION":"15.08831137","EPOCH":"2023-03-06T18:20:35.573568","TLE_LINE1":"1 52297U 22041AN  23065.76430062  .00002690  00000-0  18712-3 0  9997","DECAY_DATE":null,"SITE":"AFETR","ARG_OF_PERICENTER":"65.7594","MEAN_MOTION_DOT":"0.00002690","INCLINATION":"53.2188","OBJECT_TYPE":"PAYLOAD","EPHEMERIS_TYPE":"0","REF_FRAME":"TEME","ECCENTRICITY":"0.00021370","PERIAPSIS":"538.294","MEAN_MOTION_DDOT":"0.0000000000000","CLASSIFICATION_TYPE":"U","LAUNCH_DATE":"2022-04-21","OBJECT_NAME":"STARLINK-3758","ELEMENT_SET_NO":"999","REV_AT_EPOCH":"4860","COUNTRY_CODE":"US","RA_OF_ASC_NODE":"352.3927","OBJECT_ID":"2022-041AN","BSTAR":"0.00018712000000","TIME_SYSTEM":"UTC","RCS_SIZE":"LARGE","TLE_LINE2":"2 52297  53.2188 352.3927 0002137  65.7594 294.3621 15.08831137 48606","PERIOD":"95.438","MEAN_ANOMALY":"294.3621","GP_ID":"227627181","FILE":"3853141","SEMIMAJOR_AXIS":"6917.907","NORAD_CAT_ID":"52297","APOAPSIS":"541.251","CENTER_NAME":"EARTH"},{"PERIAPSIS":"538.335","MEAN_MOTION_DDOT":"0.0000000000000","CLASSIFICATION_TYPE":"U","LAUNCH_DATE":"2022-04-21","DECAY_DATE":null,"SITE":"AFETR","ARG_OF_PERICENTER":"76.5318","MEAN_MOTION":"15.08844350","EPOCH":"2023-03-06T19:25:33.600288","MEAN_ELEMENT_THEORY":"SGP4","TLE_LINE1":"1 52298U 22041AP  23065.80941667  .00012993  00000-0  83281-3 0  9991","REF_FRAME":"TEME","ECCENTRICITY":"0.00020200","OBJECT_TYPE":"PAYLOAD","INCLINATION":"53.2168","MEAN_MOTION_DOT":"0.00012993","EPHEMERIS_TYPE":"0","RCS_SIZE":"LARGE","TIME_SYSTEM":"UTC","PERIOD":"95.437","TLE_LINE2":"2 52298  53.2168 352.1923 0002020  76.5318 283.5900 15.08844350 48616","OBJECT_ID":"2022-041AP","BSTAR":"0.00083281000000","SEMIMAJOR_AXIS":"6917.867","FILE":"3853141","CENTER_NAME":"EARTH","APOAPSIS":"541.130","NORAD_CAT_ID":"52298","MEAN_ANOMALY":"283.5900","GP_ID":"227628430","ELEMENT_SET_NO":"999","OBJECT_NAME":"STARLINK-3760","RA_OF_ASC_NODE":"352.1923","REV_AT_EPOCH":"4861","COUNTRY_CODE":"US"},{"OBJECT_NAME":"STARLINK-3759","ELEMENT_SET_NO":"999","COUNTRY_CODE":"US","REV_AT_EPOCH":"4861","RA_OF_ASC_NODE":"352.1645","BSTAR":"-0.00036890000000","OBJECT_ID":"2022-041AQ","PERIOD":"95.438","TLE_LINE2":"2 52299  53.2171 352.1645 0001054  73.8357 286.2751 15.08825527 48610","RCS_SIZE":"LARGE","TIME_SYSTEM":"UTC","GP_ID":"227628182","MEAN_ANOMALY":"286.2751","APOAPSIS":"540.519","CENTER_NAME":"EARTH","NORAD_CAT_ID":"52299","SEMIMAJOR_AXIS":"6917.925","FILE":"3853141","TLE_LINE1":"1 52299U 22041AQ  23065.81582000 -.00006152  00000-0 -36890-3 0  9991","MEAN_MOTION":"15.08825527","MEAN_ELEMENT_THEORY":"SGP4","EPOCH":"2023-03-06T19:34:46.848000","ARG_OF_PERICENTER":"73.8357","SITE":"AFETR","DECAY_DATE":null,"EPHEMERIS_TYPE":"0","OBJECT_TYPE":"PAYLOAD","INCLINATION":"53.2171","MEAN_MOTION_DOT":"-0.00006152","REF_FRAME":"TEME","ECCENTRICITY":"0.00010540","PERIAPSIS":"539.060","CLASSIFICATION_TYPE":"U","LAUNCH_DATE":"2022-04-21","MEAN_MOTION_DDOT":"0.0000000000000"},{"CLASSIFICATION_TYPE":"U","LAUNCH_DATE":"2022-04-21","MEAN_MOTION_DDOT":"0.0000000000000","PERIAPSIS":"538.527","ECCENTRICITY":"0.00017650","REF_FRAME":"TEME","EPHEMERIS_TYPE":"0","INCLINATION":"53.2176","MEAN_MOTION_DOT":"0.00010458","OBJECT_TYPE":"PAYLOAD","ARG_OF_PERICENTER":"68.8683","DECAY_DATE":null,"SITE":"AFETR","TLE_LINE1":"1 52300U 22041AR  23065.80109457  .00010458  00000-0  67423-3 0  9992","EPOCH":"2023-03-06T19:13:34.570848","MEAN_MOTION":"15.08839118","MEAN_ELEMENT_THEORY":"SGP4","NORAD_CAT_ID":"52300","CENTER_NAME":"EARTH","APOAPSIS":"540.969","FILE":"3853141","SEMIMAJOR_AXIS":"6917.883","GP_ID":"227627431","MEAN_ANOMALY":"291.2498","TLE_LINE2":"2 52300  53.2176 352.2264 0001765  68.8683 291.2498 15.08839118 49831","PERIOD":"95.438","TIME_SYSTEM":"UTC","RCS_SIZE":"LARGE","BSTAR":"0.00067423000000","OBJECT_ID":"2022-041AR","RA_OF_ASC_NODE":"352.2264","REV_AT_EPOCH":"4983","COUNTRY_CODE":"US","ELEMENT_SET_NO":"999","OBJECT_NAME":"STARLINK-3769"},{"GP_ID":"227627681","MEAN_ANOMALY":"269.9645","NORAD_CAT_ID":"52301","CENTER_NAME":"EARTH","APOAPSIS":"541.620","FILE":"3853141","SEMIMAJOR_AXIS":"6917.888","BSTAR":"0.00114860000000","OBJECT_ID":"2022-041AS","TLE_LINE2":"2 52301  53.2172 352.1432 0002698  90.1656 269.9645 15.08837364 48610","PERIOD":"95.438","TIME_SYSTEM":"UTC","RCS_SIZE":"LARGE","COUNTRY_CODE":"US","REV_AT_EPOCH":"4861","RA_OF_ASC_NODE":"352.1432","OBJECT_NAME":"STARLINK-3768","ELEMENT_SET_NO":"999","CLASSIFICATION_TYPE":"U","LAUNCH_DATE":"2022-04-21","MEAN_MOTION_DDOT":"0.0000000000000","PERIAPSIS":"537.887","EPHEMERIS_TYPE":"0","MEAN_MOTION_DOT":"0.00018038","INCLINATION":"53.2172","OBJECT_TYPE":"PAYLOAD","REF_FRAME":"TEME","ECCENTRICITY":"0.00026980","TLE_LINE1":"1 52301U 22041AS  23065.81950142  .00018038  00000-0  11486-2 0  9998","MEAN_MOTION":"15.08837364","EPOCH":"2023-03-06T19:40:04.922688","MEAN_ELEMENT_THEORY":"SGP4","ARG_OF_PERICENTER":"90.1656","SITE":"AFETR","DECAY_DATE":null},{"ECCENTRICITY":"0.00013030","REF_FRAME":"TEME","OBJECT_TYPE":"PAYLOAD","MEAN_MOTION_DOT":"0.00053002","INCLINATION":"53.2189","EPHEMERIS_TYPE":"0","DECAY_DATE":null,"SITE":"AFETR","ARG_OF_PERICENTER":"63.9835","MEAN_ELEMENT_THEORY":"SGP4","MEAN_MOTION":"15.08886592","EPOCH":"2023-03-06T01:29:45.731040","TLE_LINE1":"1 52302U 22041AT  23065.06233485  .00053002  00000-0  33192-2 0  9998","MEAN_MOTION_DDOT":"0.0000000000000","LAUNCH_DATE":"2022-04-21","CLASSIFICATION_TYPE":"U","PERIAPSIS":"538.702","RA_OF_ASC_NODE":"345.5393","REV_AT_EPOCH":"4863","COUNTRY_CODE":"US","ELEMENT_SET_NO":"999","OBJECT_NAME":"STARLINK-3564","SEMIMAJOR_AXIS":"6917.738","FILE":"3853141","APOAPSIS":"540.504","CENTER_NAME":"EARTH","NORAD_CAT_ID":"52302","MEAN_ANOMALY":"296.1291","GP_ID":"227627932","RCS_SIZE":"LARGE","TIME_SYSTEM":"UTC","PERIOD":"95.435","TLE_LINE2":"2 52302  53.2189 345.5393 0001303  63.9835 296.1291 15.08886592 48638","OBJECT_ID":"2022-041AT","BSTAR":"0.00331920000000"},{"PERIAPSIS":"538.702","CLASSIFICATION_TYPE":"U","LAUNCH_DATE":"2022-04-21","MEAN_MOTION_DDOT":"0.0000000000000","TLE_LINE1":"1 52303U 22041AU  23065.80478145  .00010810  00000-0  69641-3 0  9994","MEAN_MOTION":"15.08832238","EPOCH":"2023-03-06T19:18:53.117280","MEAN_ELEMENT_THEORY":"SGP4","ARG_OF_PERICENTER":"69.0163","DECAY_DATE":null,"SITE":"AFETR","EPHEMERIS_TYPE":"0","OBJECT_TYPE":"PAYLOAD","INCLINATION":"53.2190","MEAN_MOTION_DOT":"0.00010810","REF_FRAME":"TEME","ECCENTRICITY":"0.00015430","BSTAR":"0.00069641000000","OBJECT_ID":"2022-041AU","PERIOD":"95.438","TLE_LINE2":"2 52303  53.2190 352.2105 0001543  69.0163 291.0994 15.08832238 49839","RCS_SIZE":"LARGE","TIME_SYSTEM":"UTC","GP_ID":"227628681","MEAN_ANOMALY":"291.0994","CENTER_NAME":"EARTH","APOAPSIS":"540.837","NORAD_CAT_ID":"52303","SEMIMAJOR_AXIS":"6917.904","FILE":"3853141","OBJECT_NAME":"STARLINK-3742","ELEMENT_SET_NO":"999","COUNTRY_CODE":"US","REV_AT_EPOCH":"4983","RA_OF_ASC_NODE":"352.2105"},{"MEAN_ANOMALY":"262.9230","GP_ID":"227626932","SEMIMAJOR_AXIS":"6917.892","FILE":"3853141","CENTER_NAME":"EARTH","APOAPSIS":"540.618","NORAD_CAT_ID":"52304","OBJECT_ID":"2022-041AV","BSTAR":"0.00114480000000","RCS_SIZE":"LARGE","TIME_SYSTEM":"UTC","PERIOD":"95.438","TLE_LINE2":"2 52304  53.2175 342.2904 0001244  97.1903 262.9230 15.08836183 48743","COUNTRY_CODE":"US","REV_AT_EPOCH":"4874","RA_OF_ASC_NODE":"342.2904","OBJECT_NAME":"STARLINK-3744","ELEMENT_SET_NO":"999","MEAN_MOTION_DDOT":"0.0000000000000","CLASSIFICATION_TYPE":"U","LAUNCH_DATE":"2022-04-21","PERIAPSIS":"538.896","OBJECT_TYPE":"PAYLOAD","INCLINATION":"53.2175","MEAN_MOTION_DOT":"0.00017976","EPHEMERIS_TYPE":"0","ECCENTRICITY":"0.00012440","REF_FRAME":"TEME","MEAN_MOTION":"15.08836183","EPOCH":"2023-03-06T18:53:42.496224","MEAN_ELEMENT_THEORY":"SGP4","TLE_LINE1":"1 52304U 22041AV  23065.78729741  .00017976  00000-0  11448-2 0  9994","SITE":"AFETR","DECAY_DATE":null,"ARG_OF_PERICENTER":"97.1903"}];
